start=new Date('2022-12-31T00:00:00.000Z').valueOf();
sats=[{"MEAN_MOTION":"15.08835988","TIME_SYSTEM":"UTC","CLASSIFICATION_TYPE":"U","RCS_SIZE":"LARGE","EPOCH":"2022-12-30T11:35:57.034464","INCLINATION":"53.2181","TLE_LINE2":"2 53704  53.2181  75.1789 0001296  64.4204 295.6921 15.08835988 18789","TLE_LINE1":"1 53704U 22107E   22364.48329901  .00002326  00000-0  16420-3 0  9993","SITE":"AFETR","COUNTRY_CODE":"US","SEMIMAJOR_AXIS":"6917.893","ECCENTRICITY":"0.00012960","MEAN_ELEMENT_THEORY":"SGP4","OBJECT_ID":"2022-107E","GP_ID":"221790297","REV_AT_EPOCH":"1878","MEAN_ANOMALY":"295.6921","ELEMENT_SET_NO":"999","CENTER_NAME":"EARTH","OBJECT_TYPE":"PAYLOAD","MEAN_MOTION_DOT":"0.00002326","EPHEMERIS_TYPE":"0","DECAY_DATE":null,"FILE":"3726810","ARG_OF_PERICENTER":"64.4204","PERIAPSIS":"538.861","OBJECT_NAME":"STARLINK-4714","BSTAR":"0.00016420000000","RA_OF_ASC_NODE":"75.1789","APOAPSIS":"540.654","REF_FRAME":"TEME","MEAN_MOTION_DDOT":"0.0000000000000","PERIOD":"95.438","NORAD_CAT_ID":"53704","LAUNCH_DATE":"2022-09-05"},{"EPHEMERIS_TYPE":"0","MEAN_MOTION_DOT":"0.00000763","OBJECT_TYPE":"PAYLOAD","CENTER_NAME":"EARTH","RA_OF_ASC_NODE":"74.5631","BSTAR":"0.00006604100000","OBJECT_NAME":"STARLINK-4717","ARG_OF_PERICENTER":"107.7690","PERIAPSIS":"538.921","FILE":"3727108","DECAY_DATE":null,"PERIOD":"95.438","MEAN_MOTION_DDOT":"0.0000000000000","REF_FRAME":"TEME","APOAPSIS":"540.573","LAUNCH_DATE":"2022-09-05","NORAD_CAT_ID":"53705","EPOCH":"2022-12-30T14:41:24.969984","RCS_SIZE":"LARGE","CLASSIFICATION_TYPE":"U","TIME_SYSTEM":"UTC","MEAN_MOTION":"15.08839512","COUNTRY_CODE":"US","SITE":"AFETR","TLE_LINE1":"1 53705U 22107F   22364.61209456  .00000763  00000-0  66041-4 0  9999","TLE_LINE2":"2 53705  53.2178  74.5631 0001194 107.7690 252.3433 15.08839512 18215","INCLINATION":"53.2178","GP_ID":"221795588","OBJECT_ID":"2022-107F","MEAN_ELEMENT_THEORY":"SGP4","ECCENTRICITY":"0.00011940","SEMIMAJOR_AXIS":"6917.882","ELEMENT_SET_NO":"999","MEAN_ANOMALY":"252.3433","REV_AT_EPOCH":"1821"},{"EPHEMERIS_TYPE":"0","CENTER_NAME":"EARTH","MEAN_MOTION_DOT":"0.00001162","OBJECT_TYPE":"PAYLOAD","BSTAR":"0.00009111800000","OBJECT_NAME":"STARLINK-4716","RA_OF_ASC_NODE":"75.0987","DECAY_DATE":null,"ARG_OF_PERICENTER":"43.6773","PERIAPSIS":"538.580","FILE":"3726810","MEAN_MOTION_DDOT":"0.0000000000000","PERIOD":"95.438","APOAPSIS":"540.909","REF_FRAME":"TEME","LAUNCH_DATE":"2022-09-05","NORAD_CAT_ID":"53706","CLASSIFICATION_TYPE":"U","EPOCH":"2022-12-30T11:16:06.733632","RCS_SIZE":"LARGE","MEAN_MOTION":"15.08840277","TIME_SYSTEM":"UTC","SITE":"AFETR","TLE_LINE1":"1 53706U 22107G   22364.46952238  .00001162  00000-0  91118-4 0  9993","COUNTRY_CODE":"US","TLE_LINE2":"2 53706  53.2171  75.0987 0001683  43.6773 316.4352 15.08840277 18944","INCLINATION":"53.2171","GP_ID":"221789879","OBJECT_ID":"2022-107G","ECCENTRICITY":"0.00016830","SEMIMAJOR_AXIS":"6917.880","MEAN_ELEMENT_THEORY":"SGP4","ELEMENT_SET_NO":"999","REV_AT_EPOCH":"1894","MEAN_ANOMALY":"316.4352"},{"REV_AT_EPOCH":"130","MEAN_ANOMALY":"293.9868","ELEMENT_SET_NO":"999","SEMIMAJOR_AXIS":"6853.845","ECCENTRICITY":"0.00011690","MEAN_ELEMENT_THEORY":"SGP4","OBJECT_ID":"2022-107H","GP_ID":"221790088","INCLINATION":"53.2172","TLE_LINE2":"2 53707  53.2172  60.1085 0001169  75.8144 293.9868 15.30034841  1308","TLE_LINE1":"1 53707U 22107H   22364.58334491 -.01141766  00000-0 -42523-1 0  9993","SITE":"AFETR","COUNTRY_CODE":"US","MEAN_MOTION":"15.30034841","TIME_SYSTEM":"UTC","CLASSIFICATION_TYPE":"U","RCS_SIZE":"LARGE","EPOCH":"2022-12-30T14:00:01.000224","NORAD_CAT_ID":"53707","LAUNCH_DATE":"2022-09-05","APOAPSIS":"476.511","REF_FRAME":"TEME","MEAN_MOTION_DDOT":"0.0000000000000","PERIOD":"94.116","DECAY_DATE":null,"FILE":"3726810","ARG_OF_PERICENTER":"75.8144","PERIAPSIS":"474.909","OBJECT_NAME":"STARLINK-4667","BSTAR":"-0.04252300000000","RA_OF_ASC_NODE":"60.1085","CENTER_NAME":"EARTH","OBJECT_TYPE":"PAYLOAD","MEAN_MOTION_DOT":"-0.01141766","EPHEMERIS_TYPE":"0"},{"COUNTRY_CODE":"US","TLE_LINE1":"1 53708U 22107J   22364.66667824 -.01133719  00000-0 -46483-1 0  9990","SITE":"AFETR","TLE_LINE2":"2 53708  53.2172  59.9109 0001402  47.1265 326.1595 15.26894994 18423","INCLINATION":"53.2172","EPOCH":"2022-12-30T16:00:00.999936","RCS_SIZE":"LARGE","CLASSIFICATION_TYPE":"U","TIME_SYSTEM":"UTC","MEAN_MOTION":"15.26894994","ELEMENT_SET_NO":"999","REV_AT_EPOCH":"1842","MEAN_ANOMALY":"326.1595","GP_ID":"221762177","OBJECT_ID":"2022-107J","MEAN_ELEMENT_THEORY":"SGP4","ECCENTRICITY":"0.00014020","SEMIMAJOR_AXIS":"6863.238","RA_OF_ASC_NODE":"59.9109","BSTAR":"-0.04648300000000","OBJECT_NAME":"STARLINK-4694","ARG_OF_PERICENTER":"47.1265","PERIAPSIS":"484.141","FILE":"3726725","DECAY_DATE":null,"EPHEMERIS_TYPE":"0","MEAN_MOTION_DOT":"-0.01133719","OBJECT_TYPE":"PAYLOAD","CENTER_NAME":"EARTH","LAUNCH_DATE":"2022-09-05","NORAD_CAT_ID":"53708","PERIOD":"94.309","MEAN_MOTION_DDOT":"0.0000000000000","REF_FRAME":"TEME","APOAPSIS":"486.065"},{"FILE":"3727105","PERIAPSIS":"543.176","ARG_OF_PERICENTER":"43.5335","DECAY_DATE":null,"RA_OF_ASC_NODE":"78.6004","OBJECT_NAME":"STARLINK-4685","BSTAR":"0.00014981000000","OBJECT_TYPE":"PAYLOAD","MEAN_MOTION_DOT":"0.00001998","CENTER_NAME":"EARTH","EPHEMERIS_TYPE":"0","NORAD_CAT_ID":"53709","LAUNCH_DATE":"2022-09-05","REF_FRAME":"TEME","APOAPSIS":"546.292","PERIOD":"95.541","MEAN_MOTION_DDOT":"0.0000000000000","INCLINATION":"53.2177","TLE_LINE2":"2 53709  53.2177  78.6004 0002251  43.5335 316.5833 15.07209396 18166","COUNTRY_CODE":"US","SITE":"AFETR","TLE_LINE1":"1 53709U 22107K   22364.68175776  .00001998  00000-0  14981-3 0  9993","TIME_SYSTEM":"UTC","MEAN_MOTION":"15.07209396","RCS_SIZE":"LARGE","EPOCH":"2022-12-30T16:21:43.870464","CLASSIFICATION_TYPE":"U","MEAN_ANOMALY":"316.5833","REV_AT_EPOCH":"1816","ELEMENT_SET_NO":"999","MEAN_ELEMENT_THEORY":"SGP4","SEMIMAJOR_AXIS":"6922.869","ECCENTRICITY":"0.00022510","OBJECT_ID":"2022-107K","GP_ID":"221795782"},{"NORAD_CAT_ID":"53711","LAUNCH_DATE":"2022-09-05","REF_FRAME":"TEME","APOAPSIS":"545.712","PERIOD":"95.542","MEAN_MOTION_DDOT":"0.0000000000000","FILE":"3726810","PERIAPSIS":"543.844","ARG_OF_PERICENTER":"64.9333","DECAY_DATE":null,"RA_OF_ASC_NODE":"79.4914","OBJECT_NAME":"STARLINK-4627","BSTAR":"0.00017302000000","OBJECT_TYPE":"PAYLOAD","MEAN_MOTION_DOT":"0.00002351","CENTER_NAME":"EARTH","EPHEMERIS_TYPE":"0","MEAN_ANOMALY":"295.1799","REV_AT_EPOCH":"1857","ELEMENT_SET_NO":"999","MEAN_ELEMENT_THEORY":"SGP4","SEMIMAJOR_AXIS":"6922.913","ECCENTRICITY":"0.00013490","OBJECT_ID":"2022-107M","GP_ID":"221789461","INCLINATION":"53.2192","TLE_LINE2":"2 53711  53.2192  79.4914 0001349  64.9333 295.1799 15.07194927 18578","COUNTRY_CODE":"US","TLE_LINE1":"1 53711U 22107M   22364.48459460  .00002351  00000-0  17302-3 0  9993","SITE":"AFETR","TIME_SYSTEM":"UTC","MEAN_MOTION":"15.07194927","RCS_SIZE":"LARGE","EPOCH":"2022-12-30T11:37:48.973440","CLASSIFICATION_TYPE":"U"},{"TIME_SYSTEM":"UTC","MEAN_MOTION":"15.07198912","RCS_SIZE":"LARGE","EPOCH":"2022-12-30T14:45:35.526528","CLASSIFICATION_TYPE":"U","INCLINATION":"53.2179","TLE_LINE2":"2 53712  53.2179  78.8973 0001624  39.8558 320.2553 15.07198912 18158","COUNTRY_CODE":"US","TLE_LINE1":"1 53712U 22107N   22364.61499452  .00001266  00000-0  10176-3 0  9990","SITE":"AFETR","MEAN_ELEMENT_THEORY":"SGP4","SEMIMAJOR_AXIS":"6922.901","ECCENTRICITY":"0.00016240","OBJECT_ID":"2022-107N","GP_ID":"221795589","REV_AT_EPOCH":"1815","MEAN_ANOMALY":"320.2553","ELEMENT_SET_NO":"999","OBJECT_TYPE":"PAYLOAD","MEAN_MOTION_DOT":"0.00001266","CENTER_NAME":"EARTH","EPHEMERIS_TYPE":"0","FILE":"3727105","PERIAPSIS":"543.642","ARG_OF_PERICENTER":"39.8558","DECAY_DATE":null,"RA_OF_ASC_NODE":"78.8973","OBJECT_NAME":"STARLINK-4683","BSTAR":"0.00010176000000","REF_FRAME":"TEME","APOAPSIS":"545.890","PERIOD":"95.541","MEAN_MOTION_DDOT":"0.0000000000000","NORAD_CAT_ID":"53712","LAUNCH_DATE":"2022-09-05"},{"APOAPSIS":"541.343","REF_FRAME":"TEME","MEAN_MOTION_DDOT":"0.0000000000000","PERIOD":"95.438","NORAD_CAT_ID":"53713","LAUNCH_DATE":"2022-09-05","CENTER_NAME":"EARTH","OBJECT_TYPE":"PAYLOAD","MEAN_MOTION_DOT":"0.00002019","EPHEMERIS_TYPE":"0","DECAY_DATE":null,"FILE":"3726810","ARG_OF_PERICENTER":"37.9989","PERIAPSIS":"538.183","OBJECT_NAME":"STARLINK-4698","BSTAR":"0.00014496000000","RA_OF_ASC_NODE":"84.2001","SEMIMAJOR_AXIS":"6917.898","ECCENTRICITY":"0.00022840","MEAN_ELEMENT_THEORY":"SGP4","OBJECT_ID":"2022-107P","GP_ID":"221790298","REV_AT_EPOCH":"1851","MEAN_ANOMALY":"322.1164","ELEMENT_SET_NO":"999","MEAN_MOTION":"15.08834198","TIME_SYSTEM":"UTC","CLASSIFICATION_TYPE":"U","RCS_SIZE":"LARGE","EPOCH":"2022-12-30T13:20:30.159168","INCLINATION":"53.2189","TLE_LINE2":"2 53713  53.2189  84.2001 0002284  37.9989 322.1164 15.08834198 18516","SITE":"AFETR","TLE_LINE1":"1 53713U 22107P   22364.55590462  .00002019  00000-0  14496-3 0  9993","COUNTRY_CODE":"US"},{"CENTER_NAME":"EARTH","OBJECT_TYPE":"PAYLOAD","MEAN_MOTION_DOT":"-0.01147258","EPHEMERIS_TYPE":"0","DECAY_DATE":null,"FILE":"3726810","PERIAPSIS":"469.653","ARG_OF_PERICENTER":"37.0449","OBJECT_NAME":"STARLINK-4688","BSTAR":"-0.04061000000000","RA_OF_ASC_NODE":"60.0135","APOAPSIS":"472.013","REF_FRAME":"TEME","MEAN_MOTION_DDOT":"0.0000000000000","PERIOD":"94.015","NORAD_CAT_ID":"53714","LAUNCH_DATE":"2022-09-05","MEAN_MOTION":"15.31669348","TIME_SYSTEM":"UTC","CLASSIFICATION_TYPE":"U","RCS_SIZE":"LARGE","EPOCH":"2022-12-30T14:00:01.000224","INCLINATION":"53.2171","TLE_LINE2":"2 53714  53.2171  60.0135 0001723  37.0449  19.8981 15.31669348  1302","TLE_LINE1":"1 53714U 22107Q   22364.58334491 -.01147258  00000-0 -40610-1 0  9998","SITE":"AFETR","COUNTRY_CODE":"US","SEMIMAJOR_AXIS":"6848.968","ECCENTRICITY":"0.00017230","MEAN_ELEMENT_THEORY":"SGP4","OBJECT_ID":"2022-107Q","GP_ID":"221790507","MEAN_ANOMALY":"19.8981","REV_AT_EPOCH":"130","ELEMENT_SET_NO":"999"}];
